GLOBALSTAR M067         
1 32263U 07048A   24343.42257221 -.00000045  00000+0  38994-3 0  9991
2 32263  51.9721 234.1223 0000842   5.6910 165.5390 12.40662529785809
GLOBALSTAR M070         
1 32264U 07048B   24343.56576205 -.00000061  00000+0  23813-3 0  9995
2 32264  51.9769 349.2095 0000437  63.5068  85.3178 12.62307540789590
GLOBALSTAR M066         
1 32265U 07048C   24343.42711337 -.00000063  00000+0  25041-3 0  9995
2 32265  51.9657 220.8144 0001460  59.7056 111.3813 12.42168161791677
GLOBALSTAR M068         
1 32266U 07048D   24343.56001876 -.00000061  00000+0  23869-3 0  9995
2 32266  51.9855 163.3459 0002106  85.8081 339.4331 12.62811033793477
GLOBALSTAR M079         
1 37188U 10054A   24343.44194295 -.00000089  00000+0  82236-4 0  9993
2 37188  52.0057   0.4470 0000231 166.5947 341.3162 12.62267995652368
GLOBALSTAR M074         
1 37189U 10054B   24343.46804598 -.00000083  00000+0  11529-3 0  9990
2 37189  52.0035 359.7173 0000286  55.7964  92.0533 12.62260014652977
GLOBALSTAR M076         
1 37190U 10054C   24343.57308519 -.00000076  00000+0  15636-3 0  9991
2 37190  52.0049 359.5538 0000121 330.1962 173.6298 12.62274472652701
GLOBALSTAR M077         
1 37191U 10054D   24343.32304806 -.00000079  00000+0  13944-3 0  9993
2 37191  52.0085 317.1167 0000425  52.1115  94.6988 12.62267893653043
